BEIDOU-2 G4             
1 37210U 10057A   26169.57008891 -.00000120  00000+0  00000+0 0  9990
2 37210   3.6508  68.9381 0005291 196.2918   6.8032  1.00270617 57303
FENGYUN 3B              
1 37214U 10059A   26169.59490748  .00000097  00000+0  73561-4 0  9993
2 37214  98.9613 215.6159 0021963 179.9725 333.7718 14.14841529807629
COSMO-SKYMED 4          
1 37216U 10060A   26169.59143598 -.00000028  00000+0  30218-5 0  9993
2 37216  97.8880 353.1699 0001358  82.7678 277.3690 14.82152651844771
SKYTERRA 1              
1 37218U 10061A   26169.28387662 -.00000126  00000+0  00000+0 0  9993
2 37218   5.1281  50.8593 0002259  10.1886 206.3349  1.00271921 57206
O/OREOS (USA 219)       
1 37224U 10062C   26169.13372697  .00001822  00000+0  17759-3 0  9993
2 37224  71.9713  78.1955 0012568  61.0005 299.2424 14.93748266116782
FASTSAT-HSV01 (USA 220) 
1 37225U 10062D   26169.37822118  .00000397  00000+0  57054-4 0  9997
2 37225  71.9705 157.0689 0014939 130.5945 229.6522 14.82138605114304
HYLAS 1                 
1 37237U 10065A   26168.89956233  .00000081  00000+0  00000+0 0  9999
2 37237   5.6464  73.0089 0001646  41.3805 129.3742  1.00271013  6890
INTELSAT 17 (IS-17)     
1 37238U 10065B   26169.55146668  .00000000  00000+0  00000+0 0  9998
2 37238   0.0244  72.7578 0002888  40.1363  58.3982  1.00272120 53260
BEIDOU-2 IGSO-2         
1 37256U 10068A   26166.85415660 -.00000214  00000+0  00000+0 0  9990
2 37256  47.5513 271.8488 0055883 212.6776 194.9519  1.00282881 56782
EUTELSAT KA-SAT 9A      
1 37258U 10069A   26169.54011330  .00000055  00000+0  00000+0 0  9990
2 37258   0.0601  13.2607 0003758 117.2858 339.6773  1.00271107 44025
HISPASAT 30W-5          
1 37264U 10070A   26169.38993118 -.00000222  00000+0  00000+0 0  9991
2 37264   0.0517 109.3403 0005191 355.3637 272.3050  1.00271655 53199
KOREASAT 6              
1 37265U 10070B   26169.57008891 -.00000118  00000+0  00000+0 0  9992
2 37265   0.0160  57.3872 0002138  38.7967 175.7319  1.00270879 56781
BEIDOU-2 IGSO-3         
1 37384U 11013A   26169.61194170 -.00000190  00000+0  00000+0 0  9993
2 37384  62.4088  40.1377 0034295 184.6608  10.0015  1.00267082 55679
RESOURCESAT-2           
1 37387U 11015A   26169.56704357  .00000085  00000+0  59166-4 0  9990
2 37387  98.7644 236.9994 0010241 251.0749 108.9318 14.21606876786378
YOUTHSAT                
1 37388U 11015B   26169.43750824  .00000135  00000+0  74337-4 0  9990
2 37388  98.3682 143.4352 0014120 343.4036 169.1805 14.25630730787812
X-SAT                   
1 37389U 11015C   26169.55942675  .00000155  00000+0  83528-4 0  9995
2 37389  98.3511 146.5177 0013859 344.5497  15.5258 14.25206694787874
INTELSAT 28 (IS-28)     
1 37392U 11016A   26169.38958451 -.00000232  00000+0  00000+0 0  9996
2 37392   1.8103  82.6007 0003595   6.0263 286.5334  1.00271560 53293
YAHSAT 1A               
1 37393U 11016B   26169.47751942  .00000000  00000+0  00000+0 0  9995
2 37393   0.0159   8.4013 0002815  83.7992  38.9272  1.00271424 42426
SBIRS GEO-1 (USA 230)   
1 37481U 11019A   26169.19226523  .00000091  00000+0  00000+0 0  9997
2 37481   4.5380  53.1243 0002274  29.7346 304.5958  1.00275270 55401
TELSTAR 14R             
1 37602U 11021A   26169.45463932 -.00000286  00000+0  00000+0 0  9998
2 37602   0.0190  57.6272 0002224   0.6231 309.1089  1.00271822 55846
GSAT-8                  
1 37605U 11022A   26169.54938667  .00000078  00000+0  00000+0 0  9992
2 37605   2.1355  81.8079 0002123 198.5285 239.3125  1.00271205 53234
ST-2                    
1 37606U 11022B   26169.55592853 -.00000218  00000+0  00000+0 0  9994
2 37606   0.0159  33.4293 0001646  63.4436  98.0672  1.00271570 55292
ZHONGXING-10            
1 37677U 11026A   26168.84245069 -.00000193  00000+0  00000+0 0  9993
2 37677   1.0487  84.1808 0003189   5.9650 204.6786  1.00267890 55003
SJ-11-03                
1 37730U 11030A   26169.65996513  .00000388  00000+0  82123-4 0  9991
2 37730  97.9342 133.6472 0009282  36.2490 136.9071 14.64336666797327
GLOBALSTAR M083         
1 37739U 11033A   26169.02915856 -.00000090  00000+0  78530-4 0  9993
2 37739  51.9875   9.9569 0000939  68.0668  92.7460 12.62263147693054
GLOBALSTAR M088         
1 37740U 11033B   26169.60417398 -.00000077  00000+0  14871-3 0  9999
2 37740  52.0219 274.6389 0000673 129.3822 244.0192 12.62268803688679
GLOBALSTAR M091         
1 37741U 11033C   26169.45872727 -.00000082  00000+0  11911-3 0  9992
2 37741  51.9989 238.0451 0000273 155.7412 217.3661 12.62264027689444
GLOBALSTAR M085         
1 37742U 11033D   26169.47871316 -.00000110  00000+0 -34699-4 0  9990
2 37742  52.0097 189.2762 0000139 305.9811 218.0733 12.62264172689957
GLOBALSTAR M081         
1 37743U 11033E   26169.31360900 -.00000102  00000+0  99747-5 0  9992
2 37743  51.9932 192.2140 0000105  88.4525 284.6275 12.62265122690088
GLOBALSTAR M089         
1 37744U 11033F   26169.30148100 -.00000113  00000+0 -53442-4 0  9992
2 37744  51.9907 146.4083 0000377  82.6692  56.1559 12.62267245690928
SES-3                   
1 37748U 11035A   26169.51801318 -.00000108  00000+0  00000+0 0  9998
2 37748   1.3312  83.0700 0002297 356.0768 271.0943  1.00271391 54609
