OBJECT_NAME,OBJECT_ID,EPOCH,MEAN_MOTION,ECCENTRICITY,INCLINATION,RA_OF_ASC_NODE,ARG_OF_PERICENTER,MEAN_ANOMALY,EPHEMERIS_TYPE,CLASSIFICATION_TYPE,NORAD_CAT_ID,ELEMENT_SET_NO,REV_AT_EPOCH,BSTAR,MEAN_MOTION_DOT,MEAN_MOTION_DDOT
BEIDOU-2 G4,2010-057A,2026-06-18T13:40:55.681824,1.00270617,.00052917,3.6508,68.9381,196.2918,6.8032,0,U,37210,999,5730,0,-.12E-5,0
FENGYUN 3B,2010-059A,2026-06-18T14:16:40.006272,14.14841529,.00219631,98.9613,215.6159,179.9725,333.7718,0,U,37214,999,80762,.73561153E-4,.97E-6,0
COSMO-SKYMED 4,2010-060A,2026-06-18T14:11:40.068672,14.82152651,.00013583,97.8880,353.1699,82.7678,277.3690,0,U,37216,999,84477,.3021836E-5,-.28E-6,0
SKYTERRA 1,2010-061A,2026-06-18T06:48:46.939968,1.00271921,.00022591,5.1281,50.8593,10.1886,206.3349,0,U,37218,999,5720,0,-.126E-5,0
O/OREOS (USA 219),2010-062C,2026-06-18T03:12:34.010208,14.93748266,.00125686,71.9713,78.1955,61.0005,299.2424,0,U,37224,999,11678,.17758614E-3,.1822E-4,0
FASTSAT-HSV01 (USA 220),2010-062D,2026-06-18T09:04:38.309952,14.82138605,.00149397,71.9705,157.0689,130.5945,229.6522,0,U,37225,999,11430,.57054006E-4,.397E-5,0
HYLAS 1,2010-065A,2026-06-17T21:35:22.185312,1.00271013,.00016468,5.6464,73.0089,41.3805,129.3742,0,U,37237,999,689,0,.81E-6,0
INTELSAT 17 (IS-17),2010-065B,2026-06-18T13:14:06.721152,1.00272120,.00028882,0.0244,72.7578,40.1363,58.3982,0,U,37238,999,5326,0,0,0
BEIDOU-2 IGSO-2,2010-068A,2026-06-15T20:29:59.130240,1.00282881,.0055883,47.5513,271.8488,212.6776,194.9519,0,U,37256,999,5678,0,-.214E-5,0
EUTELSAT KA-SAT 9A,2010-069A,2026-06-18T12:57:45.789120,1.00271107,.00037584,0.0601,13.2607,117.2858,339.6773,0,U,37258,999,4402,0,.55E-6,0
HISPASAT 30W-5,2010-070A,2026-06-18T09:21:30.053952,1.00271655,.00051918,0.0517,109.3403,355.3637,272.3050,0,U,37264,999,5319,0,-.222E-5,0
KOREASAT 6,2010-070B,2026-06-18T13:40:55.681824,1.00270879,.00021382,0.0160,57.3872,38.7967,175.7319,0,U,37265,999,5678,0,-.118E-5,0
BEIDOU-2 IGSO-3,2011-013A,2026-06-18T14:41:11.762880,1.00267082,.00342954,62.4088,40.1377,184.6608,10.0015,0,U,37384,999,5567,0,-.19E-5,0
RESOURCESAT-2,2011-015A,2026-06-18T13:36:32.564448,14.21606876,.00102419,98.7644,236.9994,251.0749,108.9318,0,U,37387,999,78637,.59165754E-4,.85E-6,0
YOUTHSAT,2011-015B,2026-06-18T10:30:00.711936,14.25630730,.00141203,98.3682,143.4352,343.4036,169.1805,0,U,37388,999,78781,.74336946E-4,.135E-5,0
X-SAT,2011-015C,2026-06-18T13:25:34.471200,14.25206694,.00138598,98.3511,146.5177,344.5497,15.5258,0,U,37389,999,78787,.83527845E-4,.155E-5,0
INTELSAT 28 (IS-28),2011-016A,2026-06-18T09:21:00.101664,1.00271560,.00035959,1.8103,82.6007,6.0263,286.5334,0,U,37392,999,5329,0,-.232E-5,0
YAHSAT 1A,2011-016B,2026-06-18T11:27:37.677888,1.00271424,.00028159,0.0159,8.4013,83.7992,38.9272,0,U,37393,999,4242,0,0,0
SBIRS GEO-1 (USA 230),2011-019A,2026-06-18T04:36:51.715872,1.00275270,.00022746,4.5380,53.1243,29.7346,304.5958,0,U,37481,999,5540,0,.91E-6,0
TELSTAR 14R,2011-021A,2026-06-18T10:54:40.837248,1.00271822,.00022241,0.0190,57.6272,0.6231,309.1089,0,U,37602,999,5584,0,-.286E-5,0
GSAT-8,2011-022A,2026-06-18T13:11:07.008288,1.00271205,.00021237,2.1355,81.8079,198.5285,239.3125,0,U,37605,999,5323,0,.78E-6,0
ST-2,2011-022B,2026-06-18T13:20:32.224992,1.00271570,.00016465,0.0159,33.4293,63.4436,98.0672,0,U,37606,999,5529,0,-.218E-5,0
ZHONGXING-10,2011-026A,2026-06-17T20:13:07.739616,1.00267890,.00031899,1.0487,84.1808,5.9650,204.6786,0,U,37677,999,5500,0,-.193E-5,0
SJ-11-03,2011-030A,2026-06-18T15:50:20.987232,14.64336666,.00092825,97.9342,133.6472,36.2490,136.9071,0,U,37730,999,79732,.82122763E-4,.388E-5,0
GLOBALSTAR M083,2011-033A,2026-06-18T00:41:59.299584,12.62263147,.00009393,51.9875,9.9569,68.0668,92.7460,0,U,37739,999,69305,.78529896E-4,-.9E-6,0
GLOBALSTAR M088,2011-033B,2026-06-18T14:30:00.631872,12.62268803,.00006731,52.0219,274.6389,129.3822,244.0192,0,U,37740,999,68867,.14870928E-3,-.77E-6,0
GLOBALSTAR M091,2011-033C,2026-06-18T11:00:34.036128,12.62264027,.00002739,51.9989,238.0451,155.7412,217.3661,0,U,37741,999,68944,.11910821E-3,-.82E-6,0
GLOBALSTAR M085,2011-033D,2026-06-18T11:29:20.817024,12.62264172,.00001394,52.0097,189.2762,305.9811,218.0733,0,U,37742,999,68995,-.34698563E-4,-.11E-5,0
GLOBALSTAR M081,2011-033E,2026-06-18T07:31:35.817600,12.62265122,.00001056,51.9932,192.2140,88.4525,284.6275,0,U,37743,999,69008,.9974662E-5,-.102E-5,0
GLOBALSTAR M089,2011-033F,2026-06-18T07:14:07.958400,12.62267245,.00003775,51.9907,146.4083,82.6692,56.1559,0,U,37744,999,69092,-.53441928E-4,-.113E-5,0
SES-3,2011-035A,2026-06-18T12:25:56.338752,1.00271391,.00022976,1.3312,83.0700,356.0768,271.0943,0,U,37748,999,5460,0,-.108E-5,0
